CALSPHERE 1             
1 00900U 64063C   23055.52690361  .00000865  00000+0  90775-3 0  9994
2 00900  90.1822  45.6360 0026574 348.5235 132.5198 13.74122042905279
CALSPHERE 2             
1 00902U 64063E   23055.55253804  .00000069  00000+0  90468-4 0  9992
2 00902  90.1950  48.8948 0019869 131.8909 351.9120 13.52737830692852
LCS 1                   
1 01361U 65034C   23055.56408923  .00000004  00000+0 -54102-3 0  9990
2 01361  32.1375 166.6978 0009894  52.2703 307.8690  9.89302792 90197
TEMPSAT 1               
1 01512U 65065E   23055.51379098  .00000035  00000+0  51640-4 0  9995
2 01512  89.9252 216.7249 0071125  43.8731  24.7445 13.33469712798963
CALSPHERE 4A            
1 01520U 65065H   23055.54582019  .00000154  00000+0  28191-3 0  9992
2 01520  89.9790 129.8324 0067100 272.3384 195.8061 13.35938923801313
OPS 5712 (P/L 160)      
1 02826U 67053A   23055.51932979  .00005571  00000+0  13807-2 0  9997
2 02826  69.9280  57.1028 0007420 317.3204  42.7353 14.52372876889307
OPS 5712 (P/L 153)      
1 02874U 67053H   23055.49129182  .00000094  00000+0  10667-3 0  9998
2 02874  69.9734 185.2774 0009234 310.0596  49.9699 13.96452112838017
SURCAL 150B             
1 02909U 67053J   23055.44387735  .00012039  00000+0  21499-2 0  9998
2 02909  69.9476  33.9459 0004511 314.5108  45.5665 14.67085854900524
RIGIDSPHERE 2 (LCS 4)   
1 05398U 71067E   23055.52943865  .00000988  00000+0  33680-3 0  9990
2 05398  87.6226 313.4450 0060558 274.1374  85.2904 14.34604185700393
COSMOS 2493 (SKRL-756 1)
1 39490U 13078A   23055.58416218  .00003827  00000+0  38886-3 0  9999
2 39490  82.4213 352.4008 0016335 346.3904  13.6872 14.90488937497567
COSMOS 2494 (SKRL-756 2)
1 39491U 13078B   23055.64454891  .00003621  00000+0  35346-3 0  9996
2 39491  82.4211 345.5620 0019905 317.8540  42.1148 14.92031031497928
